{"type": "FeatureCollection", "features": [ {"type": "Feature", "properties": {"norad_id": 66970, "name": "STARLINK-35703", "group": "last-30-days", "lat": 42.47257610861168, "lon": -175.14585772154462, "alt_km": 338.7488773193063, "timestamp": "2025-12-22T18:58:52.140951+00:00", "meta": {"OBJECT_NAME": "STARLINK-35703", "OBJECT_ID": "2025-288M", "EPOCH": "2025-12-22T06:00:02.000160", "MEAN_MOTION": 15.7510657, "ECCENTRICITY": 0.00013619, "INCLINATION": 43.0006, "RA_OF_ASC_NODE": 108.9025, "ARG_OF_PERICENTER": 267.6865, "MEAN_ANOMALY": 343.8694, "EPHEMERIS_TYPE": 0, "CLASSIFICATION_TYPE": "U", "NORAD_CAT_ID": 66970, "ELEMENT_SET_NO": 999, "REV_AT_EPOCH": 336, "BSTAR": -0.00057591851, "MEAN_MOTION_DOT": -0.00088281, "MEAN_MOTION_DDOT": 0}, "tle": {"line1": "1 66970U 25288M   25356.25002315 -.00088281  00000+0 -57592-3 0  9991", "line2": "2 66970  43.0006 108.9025 0001361 267.6865 343.8694 15.75106570  3365"}}, "geometry": {"type": "Point", "coordinates": [-175.14585772154462, 42.47257610861168]}}, {"type": "Feature", "properties": {"norad_id": 66971, "name": "STARLINK-35678", "group": "last-30-days", "lat": 38.7701532652785, "lon": 165.19070587870365, "alt_km": 339.0352102262441, "timestamp": "2025-12-22T18:58:52.140962+00:00", "meta": {"OBJECT_NAME": "STARLINK-35678", "OBJECT_ID": "2025-288N", "EPOCH": "2025-12-22T06:00:02.000160", "MEAN_MOTION": 15.74991075, "ECCENTRICITY": 0.00015282, "INCLINATION": 43.0004, "RA_OF_ASC_NODE": 108.9417, "ARG_OF_PERICENTER": 278.4472, "MEAN_ANOMALY": 317.7999, "EPHEMERIS_TYPE": 0, "CLASSIFICATION_TYPE": "U", "NORAD_CAT_ID": 66971, "ELEMENT_SET_NO": 999, "REV_AT_EPOCH": 336, "BSTAR": 0.0005350779, "MEAN_MOTION_DOT": 0.00082347, "MEAN_MOTION_DDOT": 0}, "tle": {"line1": "1 66971U 25288N   25356.25002315  .00082347  00000+0  53508-3 0  9990", "line2": "2 66971  43.0004 108.9417 0001528 278.4472 317.7999 15.74991075  3367"}}, "geometry": {"type": "Point", "coordinates": [165.19070587870365, 38.7701532652785]}}, {"type": "Feature", "properties": {"norad_id": 66972, "name": "STARLINK-34846", "group": "last-30-days", "lat": 39.40713036036507, "lon": 167.50362038728596, "alt_km": 339.28871654354225, "timestamp": "2025-12-22T18:58:52.140972+00:00", "meta": {"OBJECT_NAME": "STARLINK-34846", "OBJECT_ID": "2025-288P", "EPOCH": "2025-12-22T06:00:02.000160", "MEAN_MOTION": 15.74999881, "ECCENTRICITY": 0.00017949, "INCLINATION": 43.0005, "RA_OF_ASC_NODE": 108.9369, "ARG_OF_PERICENTER": 264.3699, "MEAN_ANOMALY": 333.7953, "EPHEMERIS_TYPE": 0, "CLASSIFICATION_TYPE": "U", "NORAD_CAT_ID": 66972, "ELEMENT_SET_NO": 999, "REV_AT_EPOCH": 336, "BSTAR": 0.00037246375, "MEAN_MOTION_DOT": 0.00057026, "MEAN_MOTION_DDOT": 0}, "tle": {"line1": "1 66972U 25288P   25356.25002315  .00057026  00000+0  37246-3 0  9998", "line2": "2 66972  43.0005 108.9369 0001794 264.3699 333.7953 15.74999881  3366"}}, "geometry": {"type": "Point", "coordinates": [167.50362038728596, 39.40713036036507]}}, {"type": "Feature", "properties": {"norad_id": 66973, "name": "STARLINK-35778", "group": "last-30-days", "lat": 40.00219414297166, "lon": 169.87892064006815, "alt_km": 339.2644759464856, "timestamp": "2025-12-22T18:58:52.140982+00:00", "meta": {"OBJECT_NAME": "STARLINK-35778", "OBJECT_ID": "2025-288Q", "EPOCH": "2025-12-22T06:00:02.000160", "MEAN_MOTION": 15.750028, "ECCENTRICITY": 0.0001993, "INCLINATION": 43.0005, "RA_OF_ASC_NODE": 108.9324, "ARG_OF_PERICENTER": 270.6396, "MEAN_ANOMALY": 329.4363, "EPHEMERIS_TYPE": 0, "CLASSIFICATION_TYPE": "U", "NORAD_CAT_ID": 66973, "ELEMENT_SET_NO": 999, "REV_AT_EPOCH": 336, "BSTAR": 0.00039584379, "MEAN_MOTION_DOT": 0.00060671, "MEAN_MOTION_DDOT": 0}, "tle": {"line1": "1 66973U 25288Q   25356.25002315  .00060671  00000+0  39584-3 0  9996", "line2": "2 66973  43.0005 108.9324 0001993 270.6396 329.4363 15.75002800  3367"}}, "geometry": {"type": "Point", "coordinates": [169.87892064006815, 40.00219414297166]}}, {"type": "Feature", "properties": {"norad_id": 66974, "name": "STARLINK-35780", "group": "last-30-days", "lat": 40.5474466666597, "lon": 172.29243461004205, "alt_km": 338.6796640728289, "timestamp": "2025-12-22T18:58:52.140992+00:00", "meta": {"OBJECT_NAME": "STARLINK-35780", "OBJECT_ID": "2025-288R", "EPOCH": "2025-12-22T06:00:02.000160", "MEAN_MOTION": 15.75014543, "ECCENTRICITY": 0.00012391, "INCLINATION": 43.0005, "RA_OF_ASC_NODE": 108.9275, "ARG_OF_PERICENTER": 274.2442, "MEAN_ANOMALY": 327.7354, "EPHEMERIS_TYPE": 0, "CLASSIFICATION_TYPE": "U", "NORAD_CAT_ID": 66974, "ELEMENT_SET_NO": 999, "REV_AT_EPOCH": 336, "BSTAR": 0.00038250434, "MEAN_MOTION_DOT": 0.00058623, "MEAN_MOTION_DDOT": 0}, "tle": {"line1": "1 66974U 25288R   25356.25002315  .00058623  00000+0  38250-3 0  9990", "line2": "2 66974  43.0005 108.9275 0001239 274.2442 327.7354 15.75014543  3366"}}, "geometry": {"type": "Point", "coordinates": [172.29243461004205, 40.5474466666597]}}, {"type": "Feature", "properties": {"norad_id": 66975, "name": "STARLINK-35777", "group": "last-30-days", "lat": 41.47756885734355, "lon": 177.20013248661013, "alt_km": 338.9959780155141, "timestamp": "2025-12-22T18:58:52.141004+00:00", "meta": {"OBJECT_NAME": "STARLINK-35777", "OBJECT_ID": "2025-288S", "EPOCH": "2025-12-22T06:00:02.000160", "MEAN_MOTION": 15.75005666, "ECCENTRICITY": 0.0001793, "INCLINATION": 43.0004, "RA_OF_ASC_NODE": 108.9172, "ARG_OF_PERICENTER": 273.1764, "MEAN_ANOMALY": 332.6586, "EPHEMERIS_TYPE": 0, "CLASSIFICATION_TYPE": "U", "NORAD_CAT_ID": 66975, "ELEMENT_SET_NO": 999, "REV_AT_EPOCH": 336, "BSTAR": 0.00026295127, "MEAN_MOTION_DOT": 0.00040047, "MEAN_MOTION_DDOT": 0}, "tle": {"line1": "1 66975U 25288S   25356.25002315  .00040047  00000+0  26295-3 0  9998", "line2": "2 66975  43.0004 108.9172 0001793 273.1764 332.6586 15.75005666  3360"}}, "geometry": {"type": "Point", "coordinates": [177.20013248661013, 41.47756885734355]}}, {"type": "Feature", "properties": {"norad_id": 66976, "name": "STARLINK-35772", "group": "last-30-days", "lat": 10.51804509665737, "lon": -85.17995987964697, "alt_km": 399.27168378604983, "timestamp": "2025-12-22T18:58:52.141017+00:00", "meta": {"OBJECT_NAME": "STARLINK-35772", "OBJECT_ID": "2025-288T", "EPOCH": "2025-12-22T06:00:02.000160", "MEAN_MOTION": 15.5838331, "ECCENTRICITY": 0.00016497, "INCLINATION": 43.0009, "RA_OF_ASC_NODE": 109.5069, "ARG_OF_PERICENTER": 269.3877, "MEAN_ANOMALY": 99.8597, "EPHEMERIS_TYPE": 0, "CLASSIFICATION_TYPE": "U", "NORAD_CAT_ID": 66976, "ELEMENT_SET_NO": 999, "REV_AT_EPOCH": 336, "BSTAR": -0.035363661, "MEAN_MOTION_DOT": -0.02414271, "MEAN_MOTION_DDOT": 0}, "tle": {"line1": "1 66976U 25288T   25356.25002315 -.02414271  00000+0 -35364-1 0  9992", "line2": "2 66976  43.0009 109.5069 0001649 269.3877  99.8597 15.58383310  3360"}}, "geometry": {"type": "Point", "coordinates": [-85.17995987964697, 10.51804509665737]}}, {"type": "Feature", "properties": {"norad_id": 66977, "name": "STARLINK-35770", "group": "last-30-days", "lat": 41.86350842716553, "lon": 179.70815439147114, "alt_km": 338.732513439958, "timestamp": "2025-12-22T18:58:52.141029+00:00", "meta": {"OBJECT_NAME": "STARLINK-35770", "OBJECT_ID": "2025-288U", "EPOCH": "2025-12-22T06:00:02.000160", "MEAN_MOTION": 15.75017766, "ECCENTRICITY": 0.00013312, "INCLINATION": 43.0006, "RA_OF_ASC_NODE": 108.9132, "ARG_OF_PERICENTER": 259.3422, "MEAN_ANOMALY": 348.4099, "EPHEMERIS_TYPE": 0, "CLASSIFICATION_TYPE": "U", "NORAD_CAT_ID": 66977, "ELEMENT_SET_NO": 999, "REV_AT_EPOCH": 336, "BSTAR": 0.00012814682, "MEAN_MOTION_DOT": 0.00019233, "MEAN_MOTION_DDOT": 0}, "tle": {"line1": "1 66977U 25288U   25356.25002315  .00019233  00000+0  12815-3 0  9996", "line2": "2 66977  43.0006 108.9132 0001331 259.3422 348.4099 15.75017766  3363"}}, "geometry": {"type": "Point", "coordinates": [179.70815439147114, 41.86350842716553]}}, {"type": "Feature", "properties": {"norad_id": 66978, "name": "STARLINK-35787", "group": "last-30-days", "lat": 42.69549084508499, "lon": -172.45193219160205, "alt_km": 338.8421351385914, "timestamp": "2025-12-22T18:58:52.141039+00:00", "meta": {"OBJECT_NAME": "STARLINK-35787", "OBJECT_ID": "2025-288V", "EPOCH": "2025-12-22T06:00:02.000160", "MEAN_MOTION": 15.75139809, "ECCENTRICITY": 0.00016837, "INCLINATION": 43.0005, "RA_OF_ASC_NODE": 108.8982, "ARG_OF_PERICENTER": 263.7166, "MEAN_ANOMALY": 349.7705, "EPHEMERIS_TYPE": 0, "CLASSIFICATION_TYPE": "U", "NORAD_CAT_ID": 66978, "ELEMENT_SET_NO": 999, "REV_AT_EPOCH": 336, "BSTAR": -0.00056469172, "MEAN_MOTION_DOT": -0.00086715, "MEAN_MOTION_DDOT": 0}, "tle": {"line1": "1 66978U 25288V   25356.25002315 -.00086715  00000+0 -56469-3 0  9991", "line2": "2 66978  43.0005 108.8982 0001683 263.7166 349.7705 15.75139809  3360"}}, "geometry": {"type": "Point", "coordinates": [-172.45193219160205, 42.69549084508499]}}, {"type": "Feature", "properties": {"norad_id": 66979, "name": "STARLINK-36107", "group": "last-30-days", "lat": 42.8418157160158, "lon": -170.0093109580664, "alt_km": 338.8258150562697, "timestamp": "2025-12-22T18:58:52.141052+00:00", "meta": {"OBJECT_NAME": "STARLINK-36107", "OBJECT_ID": "2025-288W", "EPOCH": "2025-12-22T06:00:02.000160", "MEAN_MOTION": 15.75025789, "ECCENTRICITY": 0.0001623, "INCLINATION": 43.0004, "RA_OF_ASC_NODE": 108.8936, "ARG_OF_PERICENTER": 259.3522, "MEAN_ANOMALY": 356.0688, "EPHEMERIS_TYPE": 0, "CLASSIFICATION_TYPE": "U", "NORAD_CAT_ID": 66979, "ELEMENT_SET_NO": 999, "REV_AT_EPOCH": 336, "BSTAR": -8.017132e-06, "MEAN_MOTION_DOT": -1.708e-05, "MEAN_MOTION_DDOT": 0}, "tle": {"line1": "1 66979U 25288W   25356.25002315 -.00001708  00000+0 -80171-5 0  9990", "line2": "2 66979  43.0004 108.8936 0001623 259.3522 356.0688 15.75025789  3362"}}, "geometry": {"type": "Point", "coordinates": [-170.0093109580664, 42.8418157160158]}}]}